NORAD_CAT_ID,OBJECT_NAME,OBJECT_TYPE,EPOCH,MEAN_MOTION,ECCENTRICITY,INCLINATION,RA_OF_ASC_NODE,ARG_OF_PERICENTER,MEAN_ANOMALY,BSTAR,MEAN_MOTION_DOT,MEAN_MOTION_DDOT,TLE_LINE0,TLE_LINE1,TLE_LINE2,SEMIMAJOR_AXIS,PERIOD,APOGEE,PERIGEE,DECAYED
53845.0,STARLINK-4753,PAYLOAD,2023-12-29 03:11:31,15.08844824,0.0001491,53.2165,292.48,106.1994,253.9163,0.0001406,1.951e-05,0.0,0 STARLINK-4753,1 53845U 22114AD  23363.13300643  .00001951  00000-0  14060-3 0  9992,2 53845  53.2165 292.4800 0001491 106.1994 253.9163 15.08844824 71965,6917.866,95.437,540.762,538.699,0.0
53845.0,STARLINK-4753,PAYLOAD,2023-12-30 01:26:56,15.08841071,0.0001849,53.2178,288.3172,71.151,288.9683,5.0107e-05,5.09e-06,0.0,0 STARLINK-4753,1 53845U 22114AD  23364.06037296  .00000509  00000-0  50107-4 0  9997,2 53845  53.2178 288.3172 0001849  71.1510 288.9683 15.08841071 71569,6917.877,95.437,541.021,538.463,0.0
53845.0,STARLINK-4753,PAYLOAD,2023-12-30 04:37:42,15.08844362,0.0002062,53.219,287.718,67.2339,292.8871,0.00012498,1.702e-05,0.0,0 STARLINK-4753,1 53845U 22114AD  23364.19285112  .00001702  00000-0  12498-3 0  9999,2 53845  53.2190 287.7180 0002062  67.2339 292.8871 15.08844362 72120,6917.867,95.437,541.159,538.306,0.0
53845.0,STARLINK-4753,PAYLOAD,2023-12-30 22:06:56,15.08842813,0.000217,53.2186,284.4515,131.7815,228.3363,0.00010389,1.366e-05,0.0,0 STARLINK-4753,1 53845U 22114AD  23364.92148670  .00001366  00000-0  10389-3 0  9990,2 53845  53.2186 284.4515 0002170 131.7815 228.3363 15.08842813 72238,6917.872,95.437,541.238,538.236,0.0
53845.0,STARLINK-4753,PAYLOAD,2023-12-31 04:28:28,15.08849035,0.0001627,53.2179,283.263,88.0557,272.0621,0.000112,1.495e-05,0.0,0 STARLINK-4753,1 53845U 22114AD  23365.18644500  .00001495  00000-0  11200-3 0  9998,2 53845  53.2179 283.2630 0001627  88.0557 272.0621 15.08849035 71738,6917.853,95.437,540.843,538.592,0.0
53845.0,STARLINK-4753,PAYLOAD,2023-12-31 21:57:43,15.08841705,0.0001632,53.2175,279.9898,108.6306,251.4863,8.8078e-06,-1.48e-06,0.0,0 STARLINK-4753,1 53845U 22114AD  23365.91508996 -.00000148  00000-0  88078-5 0  9991,2 53845  53.2175 279.9898 0001632 108.6306 251.4863 15.08841705 72386,6917.875,95.437,540.869,538.611,0.0
53845.0,STARLINK-4753,PAYLOAD,2024-01-01 01:08:29,15.08843648,0.0001643,53.2178,279.3955,101.9996,258.118,1.6395e-05,-2.7e-07,0.0,0 STARLINK-4753,1 53845U 22114AD  24001.04756851 -.00000027  00000-0  16395-4 0  9996,2 53845  53.2178 279.3955 0001643 101.9996 258.1180 15.08843648 71866,6917.869,95.437,540.871,538.598,0.0
53845.0,STARLINK-4753,PAYLOAD,2024-01-01 04:19:15,15.08846141,0.0001743,53.2174,278.8003,115.7772,244.34,1.4402e-05,-5.9e-07,0.0,0 STARLINK-4753,1 53845U 22114AD  24001.18004610 -.00000059  00000-0  14402-4 0  9992,2 53845  53.2174 278.8003 0001743 115.7772 244.3400 15.08846141 72422,6917.862,95.437,540.932,538.521,0.0
53845.0,STARLINK-4753,PAYLOAD,2024-01-01 21:48:30,15.08841884,0.0001664,53.2173,275.5286,113.5145,246.6022,1.8125e-05,0.0,0.0,0 STARLINK-4753,1 53845U 22114AD  24001.90868802  .00000000  00000-0  18125-4 0  9994,2 53845  53.2173 275.5286 0001664 113.5145 246.6022 15.08841884 72536,6917.875,95.437,540.891,538.588,0.0
53845.0,STARLINK-4753,PAYLOAD,2024-01-02 04:10:02,15.08846559,0.0001497,53.2175,274.3401,96.6871,263.4291,4.6041e-05,4.45e-06,0.0,0 STARLINK-4753,1 53845U 22114AD  24002.17364437  .00000445  00000-0  46041-4 0  9990,2 53845  53.2175 274.3401 0001497  96.6871 263.4291 15.08846559 72039,6917.86,95.437,540.761,538.69,0.0
53845.0,STARLINK-4753,PAYLOAD,2024-01-02 18:28:31,15.08837885,0.0001543,53.2177,271.6621,111.3092,248.8065,4.002e-05,3.49e-06,0.0,0 STARLINK-4753,1 53845U 22114AD  24002.76980991  .00000349  00000-0  40020-4 0  9998,2 53845  53.2177 271.6621 0001543 111.3092 248.8065 15.08837885 72125,6917.887,95.438,540.819,538.684,0.0
53845.0,STARLINK-4753,PAYLOAD,2024-01-02 21:39:17,15.08838608,0.0001605,53.2175,271.0674,112.623,247.4932,4.0548e-05,3.57e-06,0.0,0 STARLINK-4753,1 53845U 22114AD  24002.90228915  .00000357  00000-0  40548-4 0  9999,2 53845  53.2175 271.0674 0001605 112.6230 247.4932 15.08838608 72685,6917.885,95.438,540.86,538.639,0.0
53845.0,STARLINK-4753,PAYLOAD,2024-01-03 00:50:03,15.08839774,0.000152,53.2173,270.4731,104.8384,255.2777,4.8828e-05,4.89e-06,0.0,0 STARLINK-4753,1 53845U 22114AD  24003.03476849  .00000489  00000-0  48828-4 0  9990,2 53845  53.2173 270.4731 0001520 104.8384 255.2777 15.08839774 72701,6917.881,95.438,540.798,538.695,0.0
53845.0,STARLINK-4753,PAYLOAD,2024-01-03 21:30:05,15.08826745,0.0001644,53.217,266.6072,114.0802,246.0362,0.00014703,2.052e-05,0.0,0 STARLINK-4753,1 53845U 22114AD  24003.89589425  .00002052  00000-0  14703-3 0  9991,2 53845  53.2170 266.6072 0001644 114.0802 246.0362 15.08826745 72834,6917.921,95.438,540.923,538.649,0.0
53845.0,STARLINK-4753,PAYLOAD,2024-01-04 02:16:14,15.08844219,0.0001321,53.2172,265.7155,92.3345,267.7799,-4.0291e-05,-9.29e-06,0.0,0 STARLINK-4753,1 53845U 22114AD  24004.09461075 -.00000929  00000-0 -40291-4 0  9999,2 53845  53.2172 265.7155 0001321  92.3345 267.7799 15.08844219 72324,6917.867,95.437,540.646,538.819,0.0
53845.0,STARLINK-4753,PAYLOAD,2024-01-04 21:20:52,15.08840331,0.0001401,53.2171,262.1513,94.3704,265.7449,6.2477e-05,7.07e-06,0.0,0 STARLINK-4753,1 53845U 22114AD  24004.88949088  .00000707  00000-0  62477-4 0  9993,2 53845  53.2171 262.1513 0001401  94.3704 265.7449 15.08840331 72985,6917.879,95.438,540.714,538.775,0.0
53845.0,STARLINK-4753,PAYLOAD,2024-01-05 02:07:01,15.08844243,0.0001423,53.217,261.2578,89.5236,270.592,9.321e-05,1.196e-05,0.0,0 STARLINK-4753,1 53845U 22114AD  24005.08820753  .00001196  00000-0  93210-4 0  9995,2 53845  53.2170 261.2578 0001423  89.5236 270.5920 15.08844243 73014,6917.867,95.437,540.717,538.748,0.0
53845.0,STARLINK-4753,PAYLOAD,2024-01-05 21:11:39,15.08836826,0.0001521,53.2171,257.6901,81.4748,278.6417,3.2341e-05,2.27e-06,0.0,0 STARLINK-4753,1 53845U 22114AD  24005.88309611  .00000227  00000-0  32341-4 0  9990,2 53845  53.2171 257.6901 0001521  81.4748 278.6417 15.08836826 73133,6917.89,95.438,540.807,538.703,0.0
53845.0,STARLINK-4753,PAYLOAD,2024-01-06 00:22:25,15.08840786,0.0001431,53.2169,257.0953,85.8645,274.251,5.1254e-05,5.28e-06,0.0,0 STARLINK-4753,1 53845U 22114AD  24006.01557275  .00000528  00000-0  51254-4 0  9995,2 53845  53.2169 257.0953 0001431  85.8645 274.2510 15.08840786 72613,6917.878,95.438,540.733,538.753,0.0
53845.0,STARLINK-4753,PAYLOAD,2024-01-06 22:37:49,15.08843655,0.0001561,53.2164,252.9333,81.1936,278.9233,1.4081e-05,-6.4e-07,0.0,0 STARLINK-4753,1 53845U 22114AD  24006.94293286 -.00000064  00000-0  14081-4 0  9999,2 53845  53.2164 252.9333 0001561  81.1936 278.9233 15.08843655 73296,6917.869,95.437,540.814,538.654,0.0
53845.0,STARLINK-4753,PAYLOAD,2024-01-07 01:48:35,15.08847985,0.0001425,53.216,252.3373,94.2518,265.8637,1.3005e-05,-8.1e-07,0.0,0 STARLINK-4753,1 53845U 22114AD  24007.07540895 -.00000081  00000-0  13005-4 0  9999,2 53845  53.2160 252.3373 0001425  94.2518 265.8637 15.08847985 72775,6917.856,95.437,540.707,538.735,0.0
53845.0,STARLINK-4753,PAYLOAD,2024-01-07 19:17:50,15.08841138,0.0001932,53.2172,249.0654,124.3138,235.8037,-1.3206e-05,-4.98e-06,0.0,0 STARLINK-4753,1 53845U 22114AD  24007.80405423 -.00000498  00000-0 -13206-4 0  9993,2 53845  53.2172 249.0654 0001932 124.3138 235.8037 15.08841138 72886,6917.877,95.437,541.078,538.405,0.0
53845.0,STARLINK-4753,PAYLOAD,2024-01-07 22:28:36,15.08838894,0.000166,53.2168,248.4709,96.895,263.2231,1.6e-05,-3.3e-07,0.0,0 STARLINK-4753,1 53845U 22114AD  24007.93653587 -.00000033  00000-0  16000-4 0  9992,2 53845  53.2168 248.4709 0001660  96.8950 263.2231 15.08838894 73447,6917.884,95.438,540.897,538.6,0.0
53845.0,STARLINK-4753,PAYLOAD,2024-01-08 22:19:23,15.08844657,0.0001718,53.2167,244.0103,107.9099,252.2081,6.2324e-05,7.04e-06,0.0,0 STARLINK-4753,1 53845U 22114AD  24008.93013003  .00000704  00000-0  62324-4 0  9990,2 53845  53.2167 244.0103 0001718 107.9099 252.2081 15.08844657 73599,6917.866,95.437,540.92,538.543,0.0
53845.0,STARLINK-4753,PAYLOAD,2024-01-09 18:59:24,15.08839464,0.0001581,53.2172,240.1455,102.005,258.1119,3.929e-05,3.37e-06,0.0,0 STARLINK-4753,1 53845U 22114AD  24009.79125464  .00000337  00000-0  39290-4 0  9998,2 53845  53.2172 240.1455 0001581 102.0050 258.1119 15.08839464 73185,6917.882,95.438,540.841,538.653,0.0
53845.0,STARLINK-4753,PAYLOAD,2024-01-09 22:10:10,15.08860644,0.0001761,53.217,239.5509,106.1175,254.0011,-0.00025217,-4.302e-05,0.0,0 STARLINK-4753,1 53845U 22114AD  24009.92372947 -.00004302  00000-0 -25217-3 0  9994,2 53845  53.2170 239.5509 0001761 106.1175 254.0011 15.08860644 73740,6917.817,95.436,540.901,538.464,0.0
53845.0,STARLINK-4753,PAYLOAD,2024-01-10 01:20:56,15.08840753,0.0001693,53.2168,238.9539,104.4897,255.6283,3.869e-05,3.28e-06,0.0,0 STARLINK-4753,1 53845U 22114AD  24010.05621361  .00000328  00000-0  38690-4 0  9999,2 53845  53.2168 238.9539 0001693 104.4897 255.6283 15.08840753 73768,6917.878,95.438,540.914,538.572,0.0
53845.0,STARLINK-4753,PAYLOAD,2024-01-10 23:36:22,15.08791755,0.0001926,53.2169,234.7891,103.1541,256.9666,0.0006031,9.311e-05,0.0,0 STARLINK-4753,1 53845U 22114AD  24010.98358956  .00009311  00000-0  60310-3 0  9992,2 53845  53.2169 234.7891 0001926 103.1541 256.9666 15.08791755 73367,6918.028,95.441,541.225,538.56,0.0
53845.0,STARLINK-4753,PAYLOAD,2024-01-11 20:16:24,15.08818894,0.0001563,53.2163,230.9243,97.0456,263.0714,-9.3995e-05,-1.783e-05,0.0,0 STARLINK-4753,1 53845U 22114AD  24011.84472405 -.00001783  00000-0 -93995-4 0  9997,2 53845  53.2163 230.9243 0001563  97.0456 263.0714 15.08818894 73494,6917.945,95.439,540.891,538.729,0.0
53845.0,STARLINK-4753,PAYLOAD,2024-01-11 21:51:47,15.08819746,0.0001551,53.2164,230.627,96.1922,263.9246,-8.4214e-05,-1.627e-05,0.0,0 STARLINK-4753,1 53845U 22114AD  24011.91096412 -.00001627  00000-0 -84214-4 0  9996,2 53845  53.2164 230.6270 0001551  96.1922 263.9246 15.08819746 74045,6917.942,95.439,540.88,538.734,0.0
